OBJECT_NAME,OBJECT_ID,EPOCH,MEAN_MOTION,ECCENTRICITY,INCLINATION,RA_OF_ASC_NODE,ARG_OF_PERICENTER,MEAN_ANOMALY,EPHEMERIS_TYPE,CLASSIFICATION_TYPE,NORAD_CAT_ID,ELEMENT_SET_NO,REV_AT_EPOCH,BSTAR,MEAN_MOTION_DOT,MEAN_MOTION_DDOT
STARLINK-32205,2024-131M,2026-06-07T19:03:51.962688,15.31684283,.00013607,53.1620,353.9458,64.8302,295.2841,0,U,60266,999,10551,-.21185788E-4,-.1022E-4,0
STARLINK-32158,2024-131N,2026-06-07T20:13:08.887008,15.30187330,.00011447,53.1618,353.5216,114.4987,245.6133,0,U,60267,999,10542,.7906033E-5,-.125E-5,0
STARLINK-32167,2024-131P,2026-06-07T19:51:53.092512,15.30172544,.00012937,53.1610,353.4416,95.8292,264.2856,0,U,60268,999,10551,.39986463E-4,.824E-5,0
STARLINK-32144,2024-131Q,2026-06-07T19:37:19.308576,15.31697450,.00013495,53.1626,353.3666,81.0758,279.0396,0,U,60269,999,10557,-.56661468E-4,-.2123E-4,0
STARLINK-32211,2024-131R,2026-06-07T19:39:52.643520,15.30182693,.00010121,53.1609,354.1004,77.0994,283.0120,0,U,60270,999,10551,-.24447899E-4,-.1083E-4,0
STARLINK-32164,2024-131S,2026-06-07T19:45:56.962944,15.30192784,.00011943,53.1612,354.1167,80.4453,279.6682,0,U,60271,999,10541,-.5706492E-4,-.2048E-4,0
STARLINK-32128,2024-131T,2026-06-07T20:08:35.468160,15.30189425,.00021223,53.1635,353.5064,130.9123,229.2062,0,U,60272,999,10552,-.17837487E-3,-.5637E-4,0
STARLINK-32206,2024-131U,2026-06-07T19:30:45.128448,15.30183594,.00010752,53.1620,354.0566,94.0790,266.0334,0,U,60273,999,10551,-.40155898E-4,-.1547E-4,0
STARLINK-32155,2024-131V,2026-06-07T18:57:07.166592,15.31693622,.00011944,53.1615,353.9016,101.7808,258.3328,0,U,60274,999,10541,-.18370669E-3,-.606E-4,0
STARLINK-32152,2024-131W,2026-06-07T20:04:01.895520,15.30184134,.00011826,53.1611,353.4812,97.1426,262.9710,0,U,60275,999,10542,-.81820986E-4,-.278E-4,0
STARLINK-32154,2024-131X,2026-06-07T19:54:54.651744,15.30197707,.00014457,53.1634,353.4422,82.7229,277.3936,0,U,60276,999,10552,-.13063271E-3,-.4226E-4,0
STARLINK-32135,2024-131Y,2026-06-07T20:19:13.576224,15.30192862,.00010533,53.1616,353.5442,105.2413,254.8705,0,U,60277,999,10552,-.9862634E-5,-.651E-5,0
STARLINK-32156,2024-132A,2026-06-07T20:05:34.985472,15.30173555,.00010994,53.1619,353.6201,112.4441,247.6677,0,U,60278,999,10658,-.29442508E-4,-.123E-4,0
STARLINK-32010,2024-132B,2026-06-07T20:10:26.545728,15.31720595,.00010095,53.1610,353.6427,90.8420,269.2697,0,U,60279,999,10536,-.52290428E-4,-.1988E-4,0
STARLINK-32118,2024-132C,2026-06-07T19:56:27.576672,15.30192709,.00010314,53.1606,353.5785,117.9034,242.2071,0,U,60280,999,10536,-.45455513E-4,-.1705E-4,0
STARLINK-32038,2024-132D,2026-06-07T19:59:28.036896,15.30205443,.00013336,53.1627,353.5911,96.9155,263.1998,0,U,60281,999,10536,.8743157E-5,-.1E-5,0
STARLINK-32113,2024-132E,2026-06-07T20:01:00.579072,15.30216089,.00007069,53.1611,353.5963,103.5693,256.5387,0,U,60282,999,10536,-.21946239E-3,-.6856E-4,0
STARLINK-32037,2024-132F,2026-06-08T00:00:04.000320,15.31661339,.00012475,53.1598,352.9974,88.3656,20.0097,0,U,60283,999,588,.18548084E-2,.57567E-3,0
STARLINK-32123,2024-132G,2026-06-07T19:01:06.334752,15.30201776,.00010484,53.1614,341.2791,86.9715,273.1406,0,U,60284,999,10553,-.77801914E-4,-.2663E-4,0
STARLINK-32122,2024-132H,2026-06-08T04:11:01.612608,15.30172414,.00013429,53.1623,352.1628,94.3314,265.7840,0,U,60285,999,10541,.38000629E-4,.766E-5,0
STARLINK-31656,2024-132J,2026-06-07T18:13:16.558752,15.30189209,.00011051,53.1603,353.8477,81.2351,278.8775,0,U,60286,999,10535,-.8613653E-5,-.614E-5,0
STARLINK-32114,2024-132K,2026-06-07T18:56:38.128416,15.31714967,.00014569,53.1637,354.0225,101.2120,258.9046,0,U,60287,999,10535,.10817554E-4,-.29E-6,0
STARLINK-31997,2024-132L,2026-06-07T19:33:39.762720,15.30186818,.00010577,53.1620,353.4744,79.0306,281.0814,0,U,60288,999,10536,-.93266441E-4,-.3119E-4,0
STARLINK-32000,2024-132M,2026-06-07T19:43:38.012736,15.31657555,.00013949,53.1614,353.5239,88.9575,271.1586,0,U,60289,999,10536,-.23065697E-3,-.7506E-4,0
STARLINK-32141,2024-132N,2026-06-07T20:11:39.109632,15.30191506,.00013486,53.1627,353.6421,92.1471,267.9684,0,U,60290,999,10536,-.59995994E-4,-.2135E-4,0
STARLINK-32142,2024-132P,2026-06-07T18:07:12.075168,15.30188324,.00011545,53.1607,353.8112,72.6088,287.5039,0,U,60291,999,10535,-.6212523E-5,-.543E-5,0
STARLINK-32149,2024-132Q,2026-06-08T06:00:04.000320,15.31696648,.0001217,53.1596,351.7875,96.6421,334.9111,0,U,60292,999,586,-.34082099E-3,-.10925E-3,0
STARLINK-32159,2024-132R,2026-06-07T19:38:13.242048,15.30111326,.00014761,53.1615,353.4927,96.0007,264.1162,0,U,60293,999,10536,.43332659E-3,.12461E-3,0
STARLINK-32150,2024-132S,2026-06-07T18:50:26.528064,15.31687701,.00012759,53.1627,354.0020,98.0536,262.0610,0,U,60294,999,10535,-.40896119E-4,-.1633E-4,0
STARLINK-32126,2024-132T,2026-06-07T20:04:13.931904,15.31683963,.00012926,53.1628,353.6115,103.1527,256.9619,0,U,60295,999,10536,.6006063E-5,-.179E-5,0
