STARLINK-32205          
1 60266U 24131M   26158.79435142 -.00001022  00000+0 -21186-4 0  9996
2 60266  53.1620 353.9458 0001360  64.8302 295.2841 15.31684283105513
STARLINK-32158          
1 60267U 24131N   26158.84246397 -.00000125  00000+0  79060-5 0  9992
2 60267  53.1618 353.5216 0001144 114.4987 245.6133 15.30187330105423
STARLINK-32167          
1 60268U 24131P   26158.82769783  .00000824  00000+0  39986-4 0  9997
2 60268  53.1610 353.4416 0001293  95.8292 264.2856 15.30172544105513
STARLINK-32144          
1 60269U 24131Q   26158.81758459 -.00002123  00000+0 -56661-4 0  9990
2 60269  53.1626 353.3666 0001349  81.0758 279.0396 15.31697450105571
STARLINK-32211          
1 60270U 24131R   26158.81935930 -.00001083  00000+0 -24448-4 0  9995
2 60270  53.1609 354.1004 0001012  77.0994 283.0120 15.30182693105514
STARLINK-32164          
1 60271U 24131S   26158.82357596 -.00002048  00000+0 -57065-4 0  9996
2 60271  53.1612 354.1167 0001194  80.4453 279.6682 15.30192784105413
STARLINK-32128          
1 60272U 24131T   26158.83929940 -.00005637  00000+0 -17837-3 0  9995
2 60272  53.1635 353.5064 0002122 130.9123 229.2062 15.30189425105528
STARLINK-32206          
1 60273U 24131U   26158.81302232 -.00001547  00000+0 -40156-4 0  9990
2 60273  53.1620 354.0566 0001075  94.0790 266.0334 15.30183594105513
STARLINK-32155          
1 60274U 24131V   26158.78966628 -.00006060  00000+0 -18371-3 0  9990
2 60274  53.1615 353.9016 0001194 101.7808 258.3328 15.31693622105419
STARLINK-32152          
1 60275U 24131W   26158.83613305 -.00002780  00000+0 -81821-4 0  9994
2 60275  53.1611 353.4812 0001182  97.1426 262.9710 15.30184134105425
STARLINK-32154          
1 60276U 24131X   26158.82979921 -.00004226  00000+0 -13063-3 0  9992
2 60276  53.1634 353.4422 0001445  82.7229 277.3936 15.30197707105522
STARLINK-32135          
1 60277U 24131Y   26158.84668491 -.00000651  00000+0 -98626-5 0  9990
2 60277  53.1616 353.5442 0001053 105.2413 254.8705 15.30192862105528
STARLINK-32156          
1 60278U 24132A   26158.83721048 -.00001230  00000+0 -29443-4 0  9993
2 60278  53.1619 353.6201 0001099 112.4441 247.6677 15.30173555106580
STARLINK-32010          
1 60279U 24132B   26158.84058502 -.00001988  00000+0 -52290-4 0  9999
2 60279  53.1610 353.6427 0001009  90.8420 269.2697 15.31720595105369
STARLINK-32118          
1 60280U 24132C   26158.83087473 -.00001705  00000+0 -45456-4 0  9992
2 60280  53.1606 353.5785 0001031 117.9034 242.2071 15.30192709105365
STARLINK-32038          
1 60281U 24132D   26158.83296339 -.00000100  00000+0  87432-5 0  9994
2 60281  53.1627 353.5911 0001333  96.9155 263.1998 15.30205443105365
STARLINK-32113          
1 60282U 24132E   26158.83403448 -.00006856  00000+0 -21946-3 0  9997
2 60282  53.1611 353.5963 0000706 103.5693 256.5387 15.30216089105367
STARLINK-32037          
1 60283U 24132F   26159.00004630  .00057567  00000+0  18548-2 0  9994
2 60283  53.1598 352.9974 0001247  88.3656  20.0097 15.31661339  5888
STARLINK-32123          
1 60284U 24132G   26158.79243443 -.00002663  00000+0 -77802-4 0  9996
2 60284  53.1614 341.2791 0001048  86.9715 273.1406 15.30201776105537
STARLINK-32122          
1 60285U 24132H   26159.17432422  .00000766  00000+0  38001-4 0  9995
2 60285  53.1623 352.1628 0001342  94.3314 265.7840 15.30172414105415
STARLINK-31656          
1 60286U 24132J   26158.75921943 -.00000614  00000+0 -86137-5 0  9998
2 60286  53.1603 353.8477 0001105  81.2351 278.8775 15.30189209105352
STARLINK-32114          
1 60287U 24132K   26158.78933019 -.00000029  00000+0  10818-4 0  9990
2 60287  53.1637 354.0225 0001456 101.2120 258.9046 15.31714967105356
STARLINK-31997          
1 60288U 24132L   26158.81504355 -.00003119  00000+0 -93266-4 0  9994
2 60288  53.1620 353.4744 0001057  79.0306 281.0814 15.30186818105361
STARLINK-32000          
1 60289U 24132M   26158.82196774 -.00007506  00000+0 -23066-3 0  9992
2 60289  53.1614 353.5239 0001394  88.9575 271.1586 15.31657555105364
STARLINK-32141          
1 60290U 24132N   26158.84142488 -.00002135  00000+0 -59996-4 0  9994
2 60290  53.1627 353.6421 0001348  92.1471 267.9684 15.30191506105365
STARLINK-32142          
1 60291U 24132P   26158.75500087 -.00000543  00000+0 -62125-5 0  9998
2 60291  53.1607 353.8112 0001154  72.6088 287.5039 15.30188324105350
STARLINK-32149          
1 60292U 24132Q   26159.25004630 -.00010925  00000+0 -34082-3 0  9992
2 60292  53.1596 351.7875 0001217  96.6421 334.9111 15.31696648  5865
STARLINK-32159          
1 60293U 24132R   26158.81820882  .00012461  00000+0  43333-3 0  9993
2 60293  53.1615 353.4927 0001476  96.0007 264.1162 15.30111326105366
STARLINK-32150          
1 60294U 24132S   26158.78502926 -.00001633  00000+0 -40896-4 0  9999
2 60294  53.1627 354.0020 0001275  98.0536 262.0610 15.31687701105357
STARLINK-32126          
1 60295U 24132T   26158.83627236 -.00000179  00000+0  60061-5 0  9998
2 60295  53.1628 353.6115 0001292 103.1527 256.9619 15.31683963105364
